NORAD_CAT_ID,OBJECT_NAME,OBJECT_TYPE,EPOCH,MEAN_MOTION,ECCENTRICITY,INCLINATION,RA_OF_ASC_NODE,ARG_OF_PERICENTER,MEAN_ANOMALY,BSTAR,MEAN_MOTION_DOT,MEAN_MOTION_DDOT,TLE_LINE0,TLE_LINE1,TLE_LINE2,SEMIMAJOR_AXIS,PERIOD,APOGEE,PERIGEE,DECAYED
53536.0,STARLINK-4053,PAYLOAD,2022-12-26 17:31:45,15.07212764,0.0002101,53.2164,271.3468,36.5704,323.5431,4.9178e-05,4.65e-06,0.0,0 STARLINK-4053,1 53536U 22101K   22360.73038294  .00000465  00000-0  49178-4 0  9995,2 53536  53.2164 271.3468 0002101  36.5704 323.5431 15.07212764 19832,6922.859,95.541,546.178,543.269,0.0
53536.0,STARLINK-4053,PAYLOAD,2022-12-26 20:42:44,15.07206624,0.0002116,53.2168,270.7535,37.8836,322.2304,5.5616e-05,5.63e-06,0.0,0 STARLINK-4053,1 53536U 22101K   22360.86301073  .00000563  00000-0  55616-4 0  9990,2 53536  53.2168 270.7535 0002116  37.8836 322.2304 15.07206624 19855,6922.877,95.541,546.207,543.278,0.0
53536.0,STARLINK-4053,PAYLOAD,2022-12-27 11:02:07,15.07219998,0.000214,53.2165,268.081,40.1698,319.9451,0.00015862,2.133e-05,0.0,0 STARLINK-4053,1 53536U 22101K   22361.45980425  .00002133  00000-0  15862-3 0  9993,2 53536  53.2165 268.0810 0002140  40.1698 319.9451 15.07219998 19942,6922.837,95.54,546.183,543.22,0.0
53536.0,STARLINK-4053,PAYLOAD,2022-12-27 18:59:34,15.07214102,0.0002158,53.2166,266.5962,39.4091,320.7057,0.00016119,2.171e-05,0.0,0 STARLINK-4053,1 53536U 22101K   22361.79136580  .00002171  00000-0  16119-3 0  9993,2 53536  53.2166 266.5962 0002158  39.4091 320.7057 15.07214102 19990,6922.855,95.541,546.214,543.226,0.0
53536.0,STARLINK-4053,PAYLOAD,2022-12-28 02:57:00,15.07213853,0.0002194,53.2163,265.1115,39.9099,320.2053,0.00018141,2.479e-05,0.0,0 STARLINK-4053,1 53536U 22101K   22362.12292323  .00002479  00000-0  18141-3 0  9997,2 53536  53.2163 265.1115 0002194  39.9099 320.2053 15.07213853 20046,6922.855,95.541,546.239,543.201,0.0
53536.0,STARLINK-4053,PAYLOAD,2022-12-29 02:49:22,15.07191178,0.0002343,53.2163,260.6577,43.6088,316.5089,-6.1382e-05,-1.218e-05,0.0,0 STARLINK-4053,1 53536U 22101K   22363.11762412 -.00001218  00000-0 -61382-4 0  9996,2 53536  53.2163 260.6577 0002343  43.6088 316.5089 15.07191178 20192,6922.925,95.542,546.4119999999998,543.168,0.0
53536.0,STARLINK-4053,PAYLOAD,2022-12-29 10:46:49,15.0719354,0.0002283,53.2164,259.1723,45.7599,314.3579,-0.00012462,-2.18e-05,0.0,0 STARLINK-4053,1 53536U 22101K   22363.44918548 -.00002180  00000-0 -12462-3 0  9998,2 53536  53.2164 259.1723 0002283  45.7599 314.3579 15.07193540 20243,6922.918000000002,95.542,546.363,543.202,0.0
53536.0,STARLINK-4053,PAYLOAD,2022-12-29 23:30:44,15.07196661,0.0002039,53.2174,256.7984,35.2183,324.8943,-8.6826e-05,-1.605e-05,0.0,0 STARLINK-4053,1 53536U 22101K   22363.97967864 -.00001605  00000-0 -86826-4 0  9998,2 53536  53.2174 256.7984 0002039  35.2183 324.8943 15.07196661 20325,6922.908,95.542,546.185,543.361,0.0
53536.0,STARLINK-4053,PAYLOAD,2022-12-30 10:39:08,15.07205174,0.0002266999999999,53.217,254.7181,48.1088,312.0096,0.00012359,1.598e-05,0.0,0 STARLINK-4053,1 53536U 22101K   22364.44385184  .00001598  00000-0  12359-3 0  9998,2 53536  53.2170 254.7181 0002267  48.1088 312.0096 15.07205174 20393,6922.882,95.541,546.316,543.177,0.0
53536.0,STARLINK-4053,PAYLOAD,2022-12-31 02:34:01,15.07209812,0.0002207,53.2166,251.7492,41.0815,319.0342,0.00025793,3.645e-05,0.0,0 STARLINK-4053,1 53536U 22101K   22365.10696391  .00003645  00000-0  25793-3 0  9998,2 53536  53.2166 251.7492 0002207  41.0815 319.0342 15.07209812 20499,6922.868,95.541,546.261,543.205,0.0
53536.0,STARLINK-4053,PAYLOAD,2023-01-01 02:26:23,15.07197332,0.0002193,53.2163,247.2951,41.50899999999999,318.6068,-8.1237e-05,-1.52e-05,0.0,0 STARLINK-4053,1 53536U 22101K   23001.10165976 -.00001520  00000-0 -81237-4 0  9994,2 53536  53.2163 247.2951 0002193  41.5090 318.6068 15.07197332 20640,6922.906,95.542,546.289,543.253,0.0
53536.0,STARLINK-4053,PAYLOAD,2023-01-01 08:48:21,15.07177096,0.0002221,53.2159,246.1067,40.9277,319.188,7.204399999999999e-05,8.12e-06,0.0,0 STARLINK-4053,1 53536U 22101K   23001.36691847  .00000812  00000-0  72044-4 0  9990,2 53536  53.2159 246.1067 0002221  40.9277 319.1880 15.07177096 20680,6922.968000000003,95.543,546.37,543.295,0.0
53536.0,STARLINK-4053,PAYLOAD,2023-01-01 16:45:48,15.072106699999996,0.0002284,53.2161,244.622,43.4836,316.6335,-0.0004959,-7.826e-05,0.0,0 STARLINK-4053,1 53536U 22101K   23001.69847477 -.00007826  00000-0 -49590-3 0  9991,2 53536  53.2161 244.6220 0002284  43.4836 316.6335 15.07210670 20734,6922.865,95.541,546.311,543.149,0.0
53536.0,STARLINK-4053,PAYLOAD,2023-01-02 02:18:44,15.07188548,0.0002241,53.216,242.8407,44.8567,315.2606,-9.4417e-05,-1.7199999999999998e-05,0.0,0 STARLINK-4053,1 53536U 22101K   23002.09635060 -.00001720  00000-0 -94417-4 0  9995,2 53536  53.2160 242.8407 0002241  44.8567 315.2606 15.07188548 20799,6922.933000000001,95.542,546.349,543.246,0.0
53536.0,STARLINK-4053,PAYLOAD,2023-01-02 08:40:41,15.0719737,0.0002264,53.216,241.6531,45.4902,314.6274,-0.00012077,-2.121e-05,0.0,0 STARLINK-4053,1 53536U 22101K   23002.36159537 -.00002121  00000-0 -12077-3 0  9992,2 53536  53.2160 241.6531 0002264  45.4902 314.6274 15.07197370 20831,6922.906,95.542,546.3380000000002,543.203,0.0
53536.0,STARLINK-4053,PAYLOAD,2023-01-02 15:02:39,15.07197758,0.0002211999999999,53.216,240.4652,44.6146,315.5024,-6.179800000000001e-05,-1.224e-05,0.0,0 STARLINK-4053,1 53536U 22101K   23002.62684217 -.00001224  00000-0 -61798-4 0  9997,2 53536  53.2160 240.4652 0002212  44.6146 315.5024 15.07197758 20873,6922.905,95.542,546.3009999999998,543.238,0.0
53536.0,STARLINK-4053,PAYLOAD,2023-01-02 16:38:08,15.07188674,0.0002248,53.2158,240.1683,45.4931,314.6244,9.2681e-05,1.127e-05,0.0,0 STARLINK-4053,1 53536U 22101K   23002.69315386  .00001127  00000-0  92681-4 0  9997,2 53536  53.2158 240.1683 0002248  45.4931 314.6244 15.07188674 20883,6922.932,95.542,546.354,543.241,0.0
53536.0,STARLINK-4053,PAYLOAD,2023-01-03 08:33:01,15.07197419,0.0002278999999999,53.2158,237.199,46.5648,313.5533,0.00018669,2.559e-05,0.0,0 STARLINK-4053,1 53536U 22101K   23003.35627066  .00002559  00000-0  18669-3 0  9995,2 53536  53.2158 237.1990 0002279  46.5648 313.5533 15.07197419 20988,6922.906,95.542,546.3480000000002,543.193,0.0
53536.0,STARLINK-4053,PAYLOAD,2023-01-04 00:27:56,15.07191878,0.0002224,53.2158,234.2291,45.9483,314.1691,0.00011584,1.479e-05,0.0,0 STARLINK-4053,1 53536U 22101K   23004.01939989  .00001479  00000-0  11584-3 0  9998,2 53536  53.2158 234.2291 0002224  45.9483 314.1691 15.07191878 21087,6922.9230000000025,95.542,546.327,543.248,0.0
53536.0,STARLINK-4053,PAYLOAD,2023-01-04 08:25:22,15.07200468,0.0002245,53.2156,232.7448,46.7134,313.4044,0.00013136,1.716e-05,0.0,0 STARLINK-4053,1 53536U 22101K   23004.35095585  .00001716  00000-0  13136-3 0  9999,2 53536  53.2156 232.7448 0002245  46.7134 313.4044 15.07200468 21133,6922.896,95.541,546.316,543.207,0.0
53536.0,STARLINK-4053,PAYLOAD,2023-01-04 21:09:16,15.07211387,0.0002186,53.2149,230.3693,46.1067,314.0105,0.00015511,2.079e-05,0.0,0 STARLINK-4053,1 53536U 22101K   23004.88144238  .00002079  00000-0  15511-3 0  9999,2 53536  53.2149 230.3693 0002186  46.1067 314.0105 15.07211387 21210,6922.863,95.541,546.241,543.215,0.0
53536.0,STARLINK-4053,PAYLOAD,2023-01-05 00:20:15,15.07216289,0.0002190999999999,53.215,229.7743,46.5034,313.6139,0.00012962,1.6899999999999994e-05,0.0,0 STARLINK-4053,1 53536U 22101K   23005.01406302  .00001690  00000-0  12962-3 0  9993,2 53536  53.2150 229.7743 0002191  46.5034 313.6139 15.07216289 21234,6922.848000000001,95.54,546.23,543.196,0.0
53536.0,STARLINK-4053,PAYLOAD,2023-01-05 08:17:40,15.072258499999998,0.0002226,53.2157,228.2899,47.5336,312.5843,0.00015933,2.144e-05,0.0,0 STARLINK-4053,1 53536U 22101K   23005.34561238  .00002144  00000-0  15933-3 0  9995,2 53536  53.2157 228.2899 0002226  47.5336 312.5843 15.07225850 21281,6922.819,95.54,546.225,543.143,0.0
53536.0,STARLINK-4053,PAYLOAD,2023-01-06 14:32:00,15.0720027,0.000214,53.2142,222.6465,52.3702,307.7484,-0.00012389,-2.169e-05,0.0,0 STARLINK-4053,1 53536U 22101K   23006.60555787 -.00002169  00000-0 -12389-3 0  9998,2 53536  53.2142 222.6465 0002140  52.3702 307.7484 15.07200270 21475,6922.897,95.541,546.243,543.28,0.0
53536.0,STARLINK-4053,PAYLOAD,2023-01-07 00:04:56,15.07198231,0.0002146,53.2137,220.865,51.6835,308.4349,-9.5209e-05,-1.732e-05,0.0,0 STARLINK-4053,1 53536U 22101K   23007.00343032 -.00001732  00000-0 -95209-4 0  9999,2 53536  53.2137 220.8650 0002146  51.6835 308.4349 15.07198231 21538,6922.903,95.542,546.254,543.283,0.0
53536.0,STARLINK-4053,PAYLOAD,2023-01-07 20:46:17,15.07200059,0.0002206,53.2145,217.0059,50.2578,309.8608,-6.2741e-05,-1.239e-05,0.0,0 STARLINK-4053,1 53536U 22101K   23007.86548522 -.00001239  00000-0 -62741-4 0  9991,2 53536  53.2145 217.0059 0002206  50.2578 309.8608 15.07200059 21663,6922.898,95.541,546.29,543.235,0.0
53536.0,STARLINK-4053,PAYLOAD,2023-01-07 23:57:16,15.07199932,0.0002263,53.2147,216.4125,48.7785,311.3401,-7.9085e-05,-1.487e-05,0.0,0 STARLINK-4053,1 53536U 22101K   23007.99811056 -.00001487  00000-0 -79085-4 0  9994,2 53536  53.2147 216.4125 0002263  48.7785 311.3401 15.07199932 21685,6922.898,95.541,546.33,543.196,0.0
53536.0,STARLINK-4053,PAYLOAD,2023-01-08 14:16:40,15.07196946,0.0002164,53.2149,213.74,47.6516,312.4659,9.1518e-05,1.109e-05,0.0,0 STARLINK-4053,1 53536U 22101K   23008.59491845  .00001109  00000-0  91518-4 0  9995,2 53536  53.2149 213.7400 0002164  47.6516 312.4659 15.07196946 21772,6922.906999999998,95.542,546.27,543.274,0.0
53536.0,STARLINK-4053,PAYLOAD,2023-01-08 22:14:07,15.0720137,0.0002183,53.2149,212.2554,48.6935,311.4244,0.00012427,1.608e-05,0.0,0 STARLINK-4053,1 53536U 22101K   23008.92647599  .00001608  00000-0  12427-3 0  9996,2 53536  53.2149 212.2554 0002183  48.6935 311.4244 15.07201370 21826,6922.894,95.541,546.27,543.247,0.0
